{
  "type": "FeatureCollection",
  "features": [
    {
      "type": "Feature",
      "properties": {
        "code": "AD"
      },
      "geometry": {
        "type": "Polygon",
        "coordinates": [
          [
            [-73.64002841691247, 45.45788205415357],
            [-73.64009241691248, 45.457914054153576],
            [-73.64015641691248, 45.45782105415358],
            [-73.63984541691248, 45.457709054153575],
            [-73.63977341691248, 45.45779705415357],
            [-73.63985341691247, 45.45783505415358],
            [-73.63976796090004, 45.45795159009595],
            [-73.63963394134997, 45.45790583369827],
            [-73.63960141691248, 45.457965054153576],
            [-73.63972741691248, 45.45800605415358],
            [-73.63964141691248, 45.45811505415357],
            [-73.63954241691248, 45.45809105415358],
            [-73.63948941691248, 45.458179054153575],
            [-73.63978641691247, 45.45829905415358],
            [-73.63985141691248, 45.45821505415358],
            [-73.63980041691248, 45.458196054153575],
            [-73.64002841691247, 45.45788205415357]
          ]
        ]
      }
    },
    {
      "type": "Feature",
      "properties": {
        "code": "CC"
      },
      "geometry": {
        "type": "Polygon",
        "coordinates": [
          [
            [-73.64004532921574, 45.45800763298163],
            [-73.63990532921574, 45.458165632981625],
            [-73.64069432921573, 45.458455632981625],
            [-73.64082332921573, 45.458289632981625],
            [-73.64004532921574, 45.45800763298163]
          ]
        ]
      }
    },
    {
      "type": "Feature",
      "properties": {
        "code": "VL"
      },
      "geometry": {
        "type": "Polygon",
        "coordinates": [
          [
            [-73.63814700054712, 45.45921372106346],
            [-73.63821868368072, 45.45912534529844],
            [-73.63867500054711, 45.459306137261684],
            [-73.63878846714243, 45.459164721063516],
            [-73.63894846311312, 45.45922912163169],
            [-73.63901384144965, 45.459145657796526],
            [-73.63859390167514, 45.458992364686765],
            [-73.63807437133961, 45.45881053894714],
            [-73.63784981042717, 45.45909649559654],
            [-73.63814700054712, 45.45921372106346]
          ]
        ]
      }
    },
    {
      "type": "Feature",
      "properties": {
        "code": "VE"
      },
      "geometry": {
        "type": "Polygon",
        "coordinates": [
          [
            [-73.63900356121555, 45.459082838910575],
            [-73.63889530168811, 45.45904003288172],
            [-73.63901744446484, 45.45888700156132],
            [-73.6389888192129, 45.45887569225579],
            [-73.63903122100082, 45.45882445555415],
            [-73.6384533088876, 45.45859834919355],
            [-73.63824088236666, 45.45886937447628],
            [-73.63860602387554, 45.45899675649231],
            [-73.63896762554553, 45.45912874962744],
            [-73.63900356121555, 45.459082838910575]
          ]
        ]
      }
    },
    {
      "type": "Feature",
      "properties": {
        "code": "SP"
      },
      "geometry": {
        "type": "Polygon",
        "coordinates": [
          [
            [-73.641039, 45.458217],
            [-73.641415, 45.458342],
            [-73.641935, 45.457675],
            [-73.641852, 45.457644],
            [-73.642016, 45.457438],
            [-73.640841, 45.45696],
            [-73.640658, 45.457212],
            [-73.641468, 45.457539],
            [-73.641184, 45.457904],
            [-73.641136, 45.457889],
            [-73.64105, 45.457995],
            [-73.641114, 45.458014],
            [-73.640852, 45.458326],
            [-73.640937, 45.458356],
            [-73.641039, 45.458217]
          ]
        ]
      }
    },
    {
      "type": "Feature",
      "properties": {
        "code": "CJ"
      },
      "geometry": {
        "type": "Polygon",
        "coordinates": [
          [
            [-73.640655, 45.457273],
            [-73.64049605160285, 45.45720480182396],
            [-73.64038542119972, 45.45716560079051],
            [-73.640194, 45.457408],
            [-73.640066, 45.457366],
            [-73.640054, 45.457323],
            [-73.640083, 45.457319],
            [-73.64006476499556, 45.457226998858495],
            [-73.639975, 45.45721],
            [-73.63985276220185, 45.45723979954292],
            [-73.639797, 45.457287],
            [-73.639753, 45.457377],
            [-73.639772, 45.457451],
            [-73.639828, 45.45750519928039],
            [-73.639966, 45.457478],
            [-73.63997210599855, 45.45745600059539],
            [-73.640033, 45.457451],
            [-73.640142, 45.457494],
            [-73.64002447280173, 45.457638199262625],
            [-73.64028676220184, 45.4577328001249],
            [-73.640283, 45.457763],
            [-73.64050968479799, 45.457846399745286],
            [-73.640662, 45.457644],
            [-73.64055036959772, 45.45759780012206],
            [-73.64074, 45.45734],
            [-73.640662, 45.457308],
            [-73.640681, 45.457283],
            [-73.640655, 45.457273]
          ]
        ]
      }
    },
    {
      "type": "Feature",
      "properties": {
        "code": "HU"
      },
      "geometry": {
        "type": "Polygon",
        "coordinates": [
          [
            [-73.6417185, 45.4582918],
            [-73.6414879, 45.4585928],
            [-73.6419076, 45.4587471],
            [-73.6421316, 45.4584404],
            [-73.6417185, 45.4582918]
          ]
        ]
      }
    },
    {
      "type": "Feature",
      "properties": {
        "code": "FC"
      },
      "geometry": {
        "type": "Polygon",
        "coordinates": [
          [
            [-73.63940392460273, 45.45863329047816],
            [-73.63960961415148, 45.458678376583805],
            [-73.6396996033285, 45.45856045900226],
            [-73.63957302514504, 45.458495951044426],
            [-73.63959576966258, 45.458471673836414],
            [-73.63957895849744, 45.45845155842818],
            [-73.63953248057032, 45.458448783888514],
            [-73.63950775826918, 45.45847028656709],
            [-73.63914582377494, 45.45833988309877],
            [-73.63903309007992, 45.458482078355615],
            [-73.63940392460273, 45.45863329047816]
          ]
        ]
      }
    },
    {
      "type": "Feature",
      "properties": {
        "code": "PY"
      },
      "geometry": {
        "type": "Polygon",
        "coordinates": [
          [
            [-73.64056528286697, 45.459210626436004],
            [-73.64062254537465, 45.45913378920548],
            [-73.64056403802955, 45.459109340974265],
            [-73.64081176062825, 45.45879675193427],
            [-73.64044702334793, 45.45865617361767],
            [-73.6404196369315, 45.45868935362449],
            [-73.64040594372246, 45.45868673415097],
            [-73.64013830373946, 45.4590482203466],
            [-73.64056525683087, 45.45921085921236],
            [-73.64056528286697, 45.459210626436004]
          ]
        ]
      }
    },
    {
      "type": "Feature",
      "properties": {
        "code": "PS"
      },
      "geometry": {
        "type": "Polygon",
        "coordinates": [
          [
            [-73.64014166666607, 45.45995527660804],
            [-73.64032865710864, 45.45970209415694],
            [-73.6401452171175, 45.45963817578479],
            [-73.6401641528588, 45.45960912195537],
            [-73.63965762178684, 45.459414875967894],
            [-73.63964105301368, 45.459435628775964],
            [-73.63953690643766, 45.45939578337757],
            [-73.63958661275792, 45.45933269477152],
            [-73.63943749379717, 45.45927956747005],
            [-73.63921381535681, 45.45957425734014],
            [-73.63934636554363, 45.45962157359847],
            [-73.63931559496469, 45.45966805970815],
            [-73.64014212780688, 45.45995538552509],
            [-73.64014166666607, 45.45995527660804]
          ]
        ]
      }
    },
    {
      "type": "Feature",
      "properties": {
        "code": "RF"
      },
      "geometry": {
        "type": "Polygon",
        "coordinates": [
          [
            [-73.64105063077668, 45.45886258676293],
            [-73.64131520569683, 45.4584881709701],
            [-73.64114436975201, 45.45842914235163],
            [-73.64120528388715, 45.458349693791234],
            [-73.6410783368342, 45.45830299036422],
            [-73.64100947820054, 45.45839310291487],
            [-73.6408545786066, 45.458330057783485],
            [-73.64075925409641, 45.45846148714679],
            [-73.64088562759628, 45.458506726398156],
            [-73.6407053200742, 45.45873294982678],
            [-73.64105050210057, 45.458862207432674],
            [-73.64105063077668, 45.45886258676293]
          ]
        ]
      }
    },
    {
      "type": "Feature",
      "properties": {
        "code": "HA"
      },
      "geometry": {
        "type": "Polygon",
        "coordinates": [
          [
            [-73.64134909040794, 45.45968757909412],
            [-73.64155807272714, 45.459421614446825],
            [-73.64108198588669, 45.45922036904264],
            [-73.64086139265397, 45.45950005944357],
            [-73.64134909040794, 45.45968757909412]
          ]
        ]
      }
    },
    {
      "type": "Feature",
      "properties": {
        "code": "HC"
      },
      "geometry": {
        "type": "Polygon",
        "coordinates": [
          [
            [-73.6420069185972, 45.45988825798639],
            [-73.6420893815115, 45.45977558219295],
            [-73.64212793560142, 45.459792107990296],
            [-73.64225966207528, 45.45962835214979],
            [-73.64200906049086, 45.459521685245846],
            [-73.64187840496417, 45.45969971369831],
            [-73.64190624958512, 45.45971023012925],
            [-73.641826891561, 45.4598205051056],
            [-73.64200702659996, 45.459888382573524],
            [-73.6420069185972, 45.45988825798639]
          ]
        ]
      }
    },
    {
      "type": "Feature",
      "properties": {
        "code": "HB"
      },
      "geometry": {
        "type": "Polygon",
        "coordinates": [
          [
            [-73.64192868166765, 45.45952943530412],
            [-73.64206187335569, 45.45935142753984],
            [-73.64211227021114, 45.459371627030976],
            [-73.64232285706929, 45.459111558033044],
            [-73.64181888851928, 45.45891461178033],
            [-73.6415039081758, 45.45936910209488],
            [-73.64192868166765, 45.45952943530412]
          ]
        ]
      }
    },
    {
      "type": "Feature",
      "properties": {
        "code": "PT"
      },
      "geometry": {
        "type": "Polygon",
        "coordinates": [
          [
            [-73.63867653244124, 45.45930812203699],
            [-73.63913589180991, 45.459508441930325],
            [-73.63923911863388, 45.45935820207703],
            [-73.63920643013965, 45.45934915147069],
            [-73.63922363461022, 45.45932682663525],
            [-73.63920384946901, 45.45933527387152],
            [-73.63879052648288, 45.45916783397857],
            [-73.6386764702483, 45.45930809451829],
            [-73.63867653244124, 45.45930812203699]
          ]
        ]
      }
    },
    {
      "type": "Feature",
      "properties": {
        "code": "SC"
      },
      "geometry": {
        "type": "Polygon",
        "coordinates": [
          [
            [-73.6392039151573, 45.45933410262103],
            [-73.63922561777052, 45.45930944295256],
            [-73.63925485806865, 45.45932060708037],
            [-73.63927357922199, 45.45929506674847],
            [-73.6393142034302, 45.459309816389634],
            [-73.63942232421643, 45.45917189177888],
            [-73.63940153175757, 45.45916314126376],
            [-73.63944311667528, 45.45911272160075],
            [-73.6391080610513, 45.45898354705224],
            [-73.63903261412855, 45.459084803255536],
            [-73.63900350468663, 45.45908313648843],
            [-73.63897083082236, 45.45912855588011],
            [-73.63901592113965, 45.45914544871232],
            [-73.6389500383635, 45.4592302285138],
            [-73.63920390868586, 45.45933399146401],
            [-73.6392039151573, 45.45933410262103]
          ]
        ]
      }
    },
    {
      "type": "Feature",
      "properties": {
        "code": "GE"
      },
      "geometry": {
        "type": "Polygon",
        "coordinates": [
          [
            [-73.64056338481444, 45.45717049386968],
            [-73.64074111434377, 45.456951079525595],
            [-73.64066409821432, 45.45691866597048],
            [-73.6406870117452, 45.456892847659475],
            [-73.64063824761665, 45.45687425024923],
            [-73.640617996737, 45.456899474378446],
            [-73.6403631428777, 45.45679981610917],
            [-73.64016924172755, 45.45704304125849],
            [-73.64044057140188, 45.45714274763023],
            [-73.6404535556587, 45.45712698884819],
            [-73.64056338481444, 45.45717049386968]
          ]
        ]
      }
    },
    {
      "type": "Feature",
      "properties": {
        "code": "RA"
      },
      "geometry": {
        "type": "Polygon",
        "coordinates": [
          [
            [-73.6378295099472, 45.45704561916594],
            [-73.63785724512472, 45.457049386453434],
            [-73.63795725528388, 45.45696860570939],
            [-73.63804809692516, 45.457005632411466],
            [-73.63801740718142, 45.45704438125955],
            [-73.6383365805127, 45.45716751631076],
            [-73.63854158799899, 45.45689024679535],
            [-73.63823346297538, 45.456767972228306],
            [-73.63818558697551, 45.456831692810425],
            [-73.63806405559126, 45.45678605510358],
            [-73.63814262133488, 45.4566878908538],
            [-73.63735696390268, 45.456383063936926],
            [-73.63699236975074, 45.45666378031058],
            [-73.63786438068334, 45.45699941639961],
            [-73.63782962520477, 45.45704556547824],
            [-73.6378295099472, 45.45704561916594]
          ]
        ]
      }
    },
    {
      "type": "Feature",
      "properties": {
        "code": "PC"
      },
      "geometry": {
        "type": "Polygon",
        "coordinates": [
          [
            [-73.63765453585101, 45.45727002867875],
            [-73.63786182437862, 45.45699992876854],
            [-73.63699160222646, 45.45666926244718],
            [-73.6367821787505, 45.45693570761944],
            [-73.63765309155131, 45.4572710417701],
            [-73.63765453585101, 45.45727002867875]
          ]
        ]
      }
    },
    {
      "type": "Feature",
      "properties": {
        "code": "SH"
      },
      "geometry": {
        "type": "Polygon",
        "coordinates": [
          [
            [-73.64262746533971, 45.45931324024508],
            [-73.6426250985651, 45.45921861487753],
            [-73.64242628947477, 45.45922193506823],
            [-73.64243102302405, 45.45931739047725],
            [-73.64262746533971, 45.45931324024508],
            [-73.64262746533971, 45.45931324024508]
          ]
        ]
      }
    },
    {
      "type": "Feature",
      "properties": {
        "code": "JR"
      },
      "geometry": {
        "type": "Polygon",
        "coordinates": [
          [
            [-73.64331216517294, 45.45854036366987],
            [-73.64336852195002, 45.45846922807826],
            [-73.64335527935884, 45.458464524936346],
            [-73.64340680111165, 45.45839836300323],
            [-73.6433313232098, 45.458369777689626],
            [-73.64334391895846, 45.45835436124446],
            [-73.6432396779096, 45.45831394898394],
            [-73.64322721060597, 45.45832937887013],
            [-73.6431555853639, 45.458300712910955],
            [-73.643101136205, 45.45837318975427],
            [-73.64311595941773, 45.45837914804642],
            [-73.64306335258321, 45.458445124963816],
            [-73.64313814873233, 45.45847487123217],
            [-73.64312542519494, 45.45848947527611],
            [-73.64322798170045, 45.45852733584607],
            [-73.64323924629383, 45.458513401613885],
            [-73.64331193043928, 45.45854048125531],
            [-73.64331216517294, 45.45854036366987]
          ]
        ]
      }
    }
  ]
}
