{
  "type": "FeatureCollection",
  "features": [
    {
      "type": "Feature",
      "properties": {
        "code": "MB"
      },
      "geometry": {
        "type": "Polygon",
        "coordinates": [
          [
            [-73.57879121037027, 45.49493912849651],
            [-73.57850837431609, 45.49517463284169],
            [-73.5788888403663, 45.49539968400312],
            [-73.57916705552351, 45.49552128785817],
            [-73.57924126495658, 45.49555009082242],
            [-73.57955026495658, 45.495283090822426],
            [-73.5792920295157, 45.495110755396105],
            [-73.5792234984929, 45.495171328885206],
            [-73.57879121037027, 45.49493912849651]
          ]
        ]
      }
    },
    {
      "type": "Feature",
      "properties": {
        "code": "ER"
      },
      "geometry": {
        "type": "Polygon",
        "coordinates": [
          [
            [-73.57963813366831, 45.49652837827687],
            [-73.57996610150602, 45.49669410816666],
            [-73.5803807450581, 45.496259188766366],
            [-73.579975, 45.496138],
            [-73.57963813366831, 45.49652837827687]
          ]
        ]
      }
    },
    {
      "type": "Feature",
      "properties": {
        "code": "LS"
      },
      "geometry": {
        "type": "Polygon",
        "coordinates": [
          [
            [-73.579569, 45.496542],
            [-73.579671, 45.496421],
            [-73.57958363696218, 45.496368432352426],
            [-73.57969111468421, 45.496276108257064],
            [-73.57944, 45.496154],
            [-73.579226, 45.49638],
            [-73.579569, 45.496542]
          ]
        ]
      }
    },
    {
      "type": "Feature",
      "properties": {
        "code": "EV"
      },
      "geometry": {
        "type": "Polygon",
        "coordinates": [
          [
            [-73.577854, 45.49516],
            [-73.577238, 45.495837],
            [-73.577474, 45.495947],
            [-73.57771, 45.496057],
            [-73.577867, 45.495896],
            [-73.57801, 45.495735],
            [-73.5785, 45.495962],
            [-73.578833, 45.495604],
            [-73.577854, 45.49516]
          ]
        ]
      }
    },
    {
      "type": "Feature",
      "properties": {
        "code": "H"
      },
      "geometry": {
        "type": "Polygon",
        "coordinates": [
          [
            [-73.578786, 45.49672],
            [-73.57817, 45.497427],
            [-73.579071, 45.497846],
            [-73.579116, 45.497824],
            [-73.579138, 45.497782],
            [-73.579733, 45.497162],
            [-73.578786, 45.49672]
          ]
        ]
      }
    },
    {
      "type": "Feature",
      "properties": {
        "code": "CL"
      },
      "geometry": {
        "type": "Polygon",
        "coordinates": [
          [
            [-73.579291, 45.493857],
            [-73.578852, 45.494231],
            [-73.579281, 45.494486],
            [-73.579727, 45.494107],
            [-73.579291, 45.493857]
          ]
        ]
      }
    },
    {
      "type": "Feature",
      "properties": {
        "code": "LB"
      },
      "geometry": {
        "type": "Polygon",
        "coordinates": [
          [
            [-73.578678, 45.496675],
            [-73.577707, 45.496209],
            [-73.577439, 45.496491],
            [-73.577638, 45.4966],
            [-73.577605, 45.496634],
            [-73.577557, 45.496612],
            [-73.577246, 45.496976],
            [-73.578089, 45.497368],
            [-73.578678, 45.496675]
          ]
        ]
      }
    },
    {
      "type": "Feature",
      "properties": {
        "code": "GM"
      },
      "geometry": {
        "type": "Polygon",
        "coordinates": [
          [
            [-73.579177, 45.495778],
            [-73.578833, 45.495604],
            [-73.5785, 45.495962],
            [-73.578834, 45.496134],
            [-73.579177, 45.495778]
          ]
        ]
      }
    },
    {
      "type": "Feature",
      "properties": {
        "code": "FB"
      },
      "geometry": {
        "type": "Polygon",
        "coordinates": [
          [
            [-73.577495, 45.494387],
            [-73.577166, 45.49471],
            [-73.577845, 45.495021],
            [-73.578129, 45.494754],
            [-73.577495, 45.494387]
          ]
        ]
      }
    },
    {
      "type": "Feature",
      "properties": {
        "code": "FG"
      },
      "geometry": {
        "type": "Polygon",
        "coordinates": [
          [
            [-73.579203, 45.493817],
            [-73.578798, 45.493565],
            [-73.577742, 45.49439],
            [-73.577562, 45.494345],
            [-73.577495, 45.494387],
            [-73.578129, 45.494754],
            [-73.579203, 45.493817]
          ]
        ]
      }
    }
  ]
}
